UNKNOWN                 
1 81036U          26076.08244254  .00009346  00000+0  24412-1 0  9993
2 81036  66.0854 329.3912 2557779 142.8588 238.0176  9.32190439 30523
UNKNOWN                 
1 81052U          26075.62040868  .00005214  00000+0  13590-2 0  9991
2 81052  65.7705 151.9627 0561846 262.6761  91.0152 13.84313976613305
UNKNOWN                 
1 81069U          26076.45793900  .00002733  00000+0  36093-2 0  9999
2 81069 100.3848 348.3619 0061743 169.6002 190.6428 13.61222703528810
UNKNOWN                 
1 81078U          26067.15934509  .00000511  00000+0  16353-1 0  9996
2 81078  65.1065 123.9356 0196687 342.0725  48.5209 11.22497223504211
UNKNOWN                 
1 81111U          26076.55341809  .00008430  00000+0  16874-2 0  9990
2 81111  62.8741 289.9177 3846306   0.9889 359.6285  7.58820871279124
UNKNOWN                 
1 81123U          26072.48881045  .00001242  00000+0  12053-2 0  9991
2 81123  99.9631 164.1671 0004692 180.3431 179.7717 13.81825005618817
UNKNOWN                 
1 81134U          26074.56892054  .00000314  00000+0  11237-2 0  9998
2 81134  90.2554   6.1332 0025508 140.6790 219.6186 12.93023735474605
UNKNOWN                 
1 81161U          26048.81954540  .00000650  00000+0  71615-3 0  9996
2 81161 100.3950 261.9225 0059845 108.2143 252.5529 13.75735350565357
UNKNOWN                 
1 81219U          26075.32906505  .00000561  00000+0  50870-3 0  9995
2 81219  82.9235 295.8424 0021028 314.5962  45.3482 13.81896123620443
UNKNOWN                 
1 81228U          26075.70035171  .00005055  00000+0  15112-2 0  9991
2 81228  70.5191  65.6295 0062976 224.5855 135.0204 14.42258913639631
UNKNOWN                 
1 81254U          26075.95137515  .00003145  00000+0  20342-2 0  9991
2 81254 100.3786 155.9794 0076372 181.9098 178.1782 14.02281797626096
UNKNOWN                 
1 81279U          26076.61400282  .00001050  00000+0  41000-3 0  9994
2 81279  98.1135 133.3800 0208119 107.0107 255.3990 14.20218798476069
UNKNOWN                 
1 81301U          26073.77227140  .00000262  00000+0  33228-3 0  9991
2 81301  66.7577  76.0467 0087122 172.9297   6.7806 13.76770016619023
UNKNOWN                 
1 81311U          26072.92899543  .00000785  00000+0  16810-3 0  9998
2 81311  98.7154 139.4478 0130695 205.4339 328.7774 14.56692046652864
UNKNOWN                 
1 81317U          26073.48032571  .00000098  00000+0  26884-3 0  9995
2 81317  67.1402 334.6197 0216198 330.3006 209.9801 13.38054256600908
UNKNOWN                 
1 81329U          26074.63473607  .00001471  00000+0  53546-3 0  9996
2 81329  65.8204 277.6003 0835732 347.9140  10.2881 13.22754358590364
UNKNOWN                 
1 81343U          26076.21309018  .00004726  00000+0  32772-3 0  9996
2 81343  85.8838 148.8335 0006414 281.8028  78.2487 15.05357512468522
UNKNOWN                 
1 81359U          26073.72107775  .00000888  00000+0  89245-3 0  9994
2 81359  66.7980 191.8070 0119971 264.0965  94.6422 13.78997476618160
UNKNOWN                 
1 81366U          26067.87649129  .00000773  00000+0  29991-3 0  9990
2 81366  65.8806 228.1422 0712640  39.6357 325.4608 13.45388160 77543
UNKNOWN                 
1 81371U          26072.25976462  .00003783  00000+0  60014-3 0  9992
2 81371  98.8095 180.9952 0070014  82.9526 277.9635 14.71207282655143
UNKNOWN                 
1 81390U          26074.43888787 -.00000254  00000+0 -15280-2 0  9993
2 81390 103.1054 334.3263 0177449 342.7587  16.7495 12.35619041511549
UNKNOWN                 
1 81392U          26074.74704753  .00002783  00000+0  26071-2 0  9996
2 81392 100.4046  77.4398 0040336 153.7531  21.5714 13.82345815615023
UNKNOWN                 
1 81405U          26073.89719008  .00001447  00000+0  11126-2 0  9996
2 81405  99.4590 128.5260 0157520 337.4444  21.9841 13.89179281574593
UNKNOWN                 
1 81427U          26069.11165159  .00000808  00000+0  49191-3 0  9996
2 81427  98.7425 313.4212 0084166 151.4668 209.1146 14.07099455564058
UNKNOWN                 
1 81438U          26073.90020414  .00002521  00000+0  36913-2 0  9995
2 81438 100.3270 314.6497 0045886 214.2968 145.5202 13.55239879604423
UNKNOWN                 
1 81439U          26076.38406536  .00000634  00000+0  19139-2 0  9998
2 81439  67.1614 318.7970 0596066 144.7766 219.4208 12.62667171273843
UNKNOWN                 
1 81449U          26076.38223666  .00110068  00000+0  49196-2 0  9999
2 81449  66.7878  72.2232 0021434  13.0678 347.1018 15.20505701647835
UNKNOWN                 
1 81478U          26076.53462479  .00002901  00000+0  10361-2 0  9993
2 81478  98.9512 355.9268 0146184  82.8310  93.1351 14.29112718636472
UNKNOWN                 
1 81488U          26074.89457858  .00000206  00000+0  35548-3 0  9997
2 81488  99.9921 313.9096 0044905 127.9668 249.4279 13.56556620609261
UNKNOWN                 
1 81497U          26074.51335973  .00003384  00000+0  30322-2 0  9993
2 81497 100.2993 343.0713 0027707 134.1283  47.4609 13.84917578229131
UNKNOWN                 
1 81499U          26076.18610195  .00002385  00000+0  65252-3 0  9993
2 81499  74.0481  44.5799 0002220 216.1695 143.9314 14.47753832496087
UNKNOWN                 
1 81535U          26075.64843385  .00001030  00000+0  43729-3 0  9994
2 81535  98.1887 155.1573 0233877 236.5686 121.2928 14.13664925400660
UNKNOWN                 
1 81536U          26073.37135111  .00000629  00000+0  40975-2 0  9996
2 81536 101.9672 300.5502 0020553  97.1328  80.0110 12.55988468563315
UNKNOWN                 
1 81537U          26073.31233764  .00000475  00000+0  30336-3 0  9994
2 81537  71.0374 279.7893 0076584  12.8668 347.4381 14.07162755633341
UNKNOWN                 
1 81552U          26076.49962182  .00000680  00000+0  15354-2 0  9996
2 81552  99.0708 355.1592 0256889 150.3733 211.2220 13.18340213591737
UNKNOWN                 
1 81599U          26074.79120769  .00000128  00000+0  33421-3 0  9998
2 81599  67.3038  79.6631 0247896  15.5230 167.0205 13.31544644597462
UNKNOWN                 
1 81605U          26076.36936682 -.00000929  00000+0 -33993-2 0  9994
2 81605  56.4331 305.4817 0145223 269.3194  89.1090 12.81405994198337
UNKNOWN                 
1 81614U          26075.44649100  .00005373  00000+0  33317-1 0  9993
2 81614 101.8519  73.4821 0356281 334.5803  23.8105 12.38268946549571
UNKNOWN                 
1 81615U          26075.42881954  .00001876  00000+0  69671-3 0  9995
2 81615  65.8287 203.7482 0766298  92.7114 276.1803 13.34508440595364
UNKNOWN                 
1 81617U          26075.90028612  .00000354  00000+0  23530-2 0  9997
2 81617 101.2692 251.2784 0031395  56.3330 304.0734 12.57611972564946
UNKNOWN                 
1 81624U          26057.07858416  .00004588  00000+0  72056-3 0  9997
2 81624  66.9770 318.5702 0063505 176.9023 183.2505 14.72174479650798
UNKNOWN                 
1 81640U          26075.88014566  .00000330  00000+0  35412-3 0  9990
2 81640  65.8249 299.4762 0979770  39.2134 327.5840 12.57310794521911
UNKNOWN                 
1 81652U          26075.60003536  .00000549  00000+0  70070-3 0  9999
2 81652 102.1445 348.5584 0363675 149.7356 332.7157 13.44511074591264
UNKNOWN                 
1 81667U          26075.80861819  .00002371  00000+0  63668-3 0  9993
2 81667  74.0375 220.4375 0014467 131.0265 229.2147 14.48594138470262
UNKNOWN                 
1 81674U          26070.58227233  .00001299  00000+0  77691-3 0  9996
2 81674  66.8276 140.5396 0023820 174.4973 255.3823 14.10159484626246
UNKNOWN                 
1 81683U          26076.60666965  .00002777  00000+0  59762-3 0  9995
2 81683  81.2178 195.2702 0022466   8.2342 351.9219 14.58139086649688
UNKNOWN                 
1 81693U          26075.87105193  .00001462  00000+0  10643-1 0  9998
2 81693 101.1008 132.0166 0378192 263.5501  92.2374 12.26085756979308
UNKNOWN                 
1 81745U          26076.56559968  .00001862  00000+0  59569-3 0  9992
2 81745  71.0015 179.8712 0002964  49.6919 310.4476 14.40905900643409
UNKNOWN                 
1 81775U          26076.61539289  .00003883  00000+0  11698-2 0  9990
2 81775  82.9205 145.5754 0012915 307.0939  52.9073 14.42332377638948
UNKNOWN                 
1 81779U          26071.39117640  .00002222  00000+0  15337+0 0  9994
2 81779  54.5036  75.7498 1442005 131.6877 241.6617  9.33715242488694
UNKNOWN                 
1 81792U          26074.17853333  .00001705  00000+0  61824-3 0  9995
2 81792  65.8298 248.0765 0894888 241.6359 109.1649 13.11361261 92156
UNKNOWN                 
1 81812U          26076.05337831  .00007876  00000+0  51780-1 0  9990
2 81812 103.8017   4.8390 0302024  69.2666 294.0481 12.38347620552233
UNKNOWN                 
1 81816U          26075.94871584  .00000445  00000+0  38051-3 0  9992
2 81816  66.2378  61.1919 0171447 194.7022 164.9032 13.89762624622434
UNKNOWN                 
1 81819U          26072.50025958  .00000866  00000+0  61584-2 0  9993
2 81819 102.1688 175.9365 0032530 297.9406  61.8369 12.47859495559333
UNKNOWN                 
1 81824U          26071.46955217  .00004733  00000+0  16181-2 0  9993
2 81824  65.8421  92.0941 0049518 289.9683  69.6082 14.36493328637479
UNKNOWN                 
1 81833U          26076.54835800  .00000352  00000+0  12476-2 0  9998
2 81833  90.2483   4.9981 0027239 130.7314 229.6176 12.93769079464778
UNKNOWN                 
1 81838U          26076.58976260  .00004704  00000+0  10176-2 0  9993
2 81838  67.7617  18.0649 0044507 279.7039 253.4883 14.58421855647158
UNKNOWN                 
1 81844U          26076.07390078  .00006624  00000+0  23149-2 0  9998
2 81844  82.9119 205.1772 0060938 221.8824 137.7696 14.34069371636400
UNKNOWN                 
1 81845U          26076.27284853  .00001615  00000+0  17998-3 0  9995
2 81845  97.6778 264.9288 0086625 354.7776 181.8751 14.85758660663553
